{
    "links": {
        "self": "http://www.neowsapp.com/rest/v1/neo/3655875?api_key=iIulBulltgU6a56xZRHN4H3l9WmuAYTsLGpBGhQ2"
    },
    "id": "3655875",
    "neo_reference_id": "3655875",
    "name": "(2014 AF33)",
    "designation": "2014 AF33",
    "nasa_jpl_url": "http://ssd.jpl.nasa.gov/sbdb.cgi?sstr=3655875",
    "absolute_magnitude_h": 22.5,
    "estimated_diameter": {
        "kilometers": {
            "estimated_diameter_min": 0.0840533402,
            "estimated_diameter_max": 0.1879489824
        },
        "meters": {
            "estimated_diameter_min": 84.0533402073,
            "estimated_diameter_max": 187.9489824394
        },
        "miles": {
            "estimated_diameter_min": 0.0522283081,
            "estimated_diameter_max": 0.1167860472
        },
        "feet": {
            "estimated_diameter_min": 275.7655606856,
            "estimated_diameter_max": 616.6305395464
        }
    },
    "is_potentially_hazardous_asteroid": false,
    "close_approach_data": [
        {
            "close_approach_date": "2014-01-12",
            "close_approach_date_full": "2014-Jan-12 12:45",
            "epoch_date_close_approach": 1389530700000,
            "relative_velocity": {
                "kilometers_per_second": "13.5140505591",
                "kilometers_per_hour": "48650.5820126048",
                "miles_per_hour": "30229.5796955544"
            },
            "miss_distance": {
                "astronomical": "0.2034496235",
                "lunar": "79.1419035415",
                "kilometers": "30435630.327901945",
                "miles": "18911823.732839041"
            },
            "orbiting_body": "Earth"
        }
    ],
    "orbital_data": {
        "orbit_id": "9",
        "orbit_determination_date": "2017-04-06 08:42:55",
        "first_observation_date": "2014-01-09",
        "last_observation_date": "2014-01-22",
        "data_arc_in_days": 13,
        "observations_used": 22,
        "orbit_uncertainty": "8",
        "minimum_orbit_intersection": ".189928",
        "jupiter_tisserand_invariant": "4.333",
        "epoch_osculation": "2456667.5",
        "eccentricity": ".289332174085413",
        "semi_major_axis": "1.5334731258611",
        "inclination": "25.2491974746391",
        "ascending_node_longitude": "120.1662492010807",
        "orbital_period": "693.6057438231871",
        "perihelion_distance": "1.089790012454154",
        "perihelion_argument": "308.046952114393",
        "aphelion_distance": "1.977156239268047",
        "perihelion_time": "2456620.147027878358",
        "mean_anomaly": "24.5774636608787",
        "mean_motion": ".5190268437162346",
        "equinox": "J2000",
        "orbit_class": {
            "orbit_class_type": "AMO",
            "orbit_class_description": "Near-Earth asteroid orbits similar to that of 1221 Amor",
            "orbit_class_range": "1.017 AU < q (perihelion) < 1.3 AU"
        }
    },
    "is_sentry_object": false
}